[{"OBJECT_NAME":"STARLINK-34246","OBJECT_ID":"2025-147Q","EPOCH":"2026-03-09T18:11:38.306400","MEAN_MOTION":15.30206464,"ECCENTRICITY":8.371e-5,"INCLINATION":53.1589,"RA_OF_ASC_NODE":242.3333,"ARG_OF_PERICENTER":75.7231,"MEAN_ANOMALY":284.3863,"EPHEMERIS_TYPE":0,"CLASSIFICATION_TYPE":"U","NORAD_CAT_ID":64769,"ELEMENT_SET_NO":999,"REV_AT_EPOCH":3876,"BSTAR":0.0010520628,"MEAN_MOTION_DOT":0.00030936,"MEAN_MOTION_DDOT":0},{"OBJECT_NAME":"CZ-6A R\/B","OBJECT_ID":"2023-168B","EPOCH":"2026-03-09T21:13:08.722272","MEAN_MOTION":15.16100791,"ECCENTRICITY":0.00607667,"INCLINATION":97.7542,"RA_OF_ASC_NODE":104.7688,"ARG_OF_PERICENTER":339.2379,"MEAN_ANOMALY":20.6386,"EPHEMERIS_TYPE":0,"CLASSIFICATION_TYPE":"U","NORAD_CAT_ID":58200,"ELEMENT_SET_NO":999,"REV_AT_EPOCH":12979,"BSTAR":0.00029693841,"MEAN_MOTION_DOT":5.919e-5,"MEAN_MOTION_DDOT":0}]
